{
  "type": "FeatureCollection",
  "features": [
    {
      "type": "Feature",
      "properties": {
        "norad_id": 43602,
        "name": "BEIDOU-3 M12 (C26)",
        "group": "beidou",
        "lat": 24.90313885131899,
        "lon": -12.508791428764503,
        "alt_km": 21532.977134303706,
        "timestamp": "2025-12-20T20:38:44.708198+00:00",
        "meta_object_name": "BEIDOU-3 M12 (C26)",
        "meta_object_id": "2018-067A",
        "meta_epoch": "2025-12-19T13:33:24.239232",
        "meta_mean_motion": 1.86227856,
        "meta_eccentricity": 0.00092481,
        "meta_inclination": 54.1835,
        "meta_ra_of_asc_node": 187.1314,
        "meta_arg_of_pericenter": 41.3287,
        "meta_mean_anomaly": 318.7989,
        "meta_ephemeris_type": 0,
        "meta_classification_type": "U",
        "meta_norad_cat_id": 43602,
        "meta_element_set_no": 999,
        "meta_rev_at_epoch": 4977,
        "meta_bstar": 0,
        "meta_mean_motion_dot": 1.01e-06,
        "meta_mean_motion_ddot": 0,
        "tle_line1": "1 43602U 18067A   25353.56486388  .00000101  00000+0  00000+0 0  9993",
        "tle_line2": "2 43602  54.1835 187.1314 0009248  41.3287 318.7989  1.86227856 49773"
      },
      "geometry": {
        "type": "Point",
        "coordinates": [
          -12.508791428764503,
          24.90313885131899
        ]
      }
    },
    {
      "type": "Feature",
      "properties": {
        "norad_id": 43603,
        "name": "BEIDOU-3 M11 (C25)",
        "group": "beidou",
        "lat": 43.6340064735328,
        "lon": -129.39141130681566,
        "alt_km": 21508.388353260372,
        "timestamp": "2025-12-20T20:38:44.708210+00:00",
        "meta_object_name": "BEIDOU-3 M11 (C25)",
        "meta_object_id": "2018-067B",
        "meta_epoch": "2025-12-20T05:40:20.265024",
        "meta_mean_motion": 1.86227366,
        "meta_eccentricity": 0.00056565,
        "meta_inclination": 54.1806,
        "meta_ra_of_asc_node": 187.0727,
        "meta_arg_of_pericenter": 37.3238,
        "meta_mean_anomaly": 322.7692,
        "meta_ephemeris_type": 0,
        "meta_classification_type": "U",
        "meta_norad_cat_id": 43603,
        "meta_element_set_no": 999,
        "meta_rev_at_epoch": 4981,
        "meta_bstar": 0,
        "meta_mean_motion_dot": 9.7e-07,
        "meta_mean_motion_ddot": 0,
        "tle_line1": "1 43603U 18067B   25354.23634566  .00000097  00000+0  00000+0 0  9996",
        "tle_line2": "2 43603  54.1806 187.0727 0005656  37.3238 322.7692  1.86227366 49816"
      },
      "geometry": {
        "type": "Point",
        "coordinates": [
          -129.39141130681566,
          43.6340064735328
        ]
      }
    },
    {
      "type": "Feature",
      "properties": {
        "norad_id": 43622,
        "name": "BEIDOU-3 M13 (C32)",
        "group": "beidou",
        "lat": 56.40527220425972,
        "lon": 153.99929503257687,
        "alt_km": 21536.07567793886,
        "timestamp": "2025-12-20T20:38:44.708221+00:00",
        "meta_object_name": "BEIDOU-3 M13 (C32)",
        "meta_object_id": "2018-072A",
        "meta_epoch": "2025-12-19T15:44:25.442592",
        "meta_mean_motion": 1.86231092,
        "meta_eccentricity": 0.0006094,
        "meta_inclination": 56.4653,
        "meta_ra_of_asc_node": 68.5911,
        "meta_arg_of_pericenter": 298.8206,
        "meta_mean_anomaly": 61.1557,
        "meta_ephemeris_type": 0,
        "meta_classification_type": "U",
        "meta_norad_cat_id": 43622,
        "meta_element_set_no": 999,
        "meta_rev_at_epoch": 4931,
        "meta_bstar": 0,
        "meta_mean_motion_dot": -5.1e-07,
        "meta_mean_motion_ddot": 0,
        "tle_line1": "1 43622U 18072A   25353.65585003 -.00000051  00000+0  00000+0 0  9990",
        "tle_line2": "2 43622  56.4653  68.5911 0006094 298.8206  61.1557  1.86231092 49316"
      },
      "geometry": {
        "type": "Point",
        "coordinates": [
          153.99929503257687,
          56.40527220425972
        ]
      }
    },
    {
      "type": "Feature",
      "properties": {
        "norad_id": 43623,
        "name": "BEIDOU-3 M14 (C33)",
        "group": "beidou",
        "lat": 1.9313350865198156,
        "lon": -112.71606481722397,
        "alt_km": 21536.560101038187,
        "timestamp": "2025-12-20T20:38:44.708232+00:00",
        "meta_object_name": "BEIDOU-3 M14 (C33)",
        "meta_object_id": "2018-072B",
        "meta_epoch": "2025-12-20T01:23:54.905568",
        "meta_mean_motion": 1.86231107,
        "meta_eccentricity": 0.00034495,
        "meta_inclination": 56.4671,
        "meta_ra_of_asc_node": 68.5717,
        "meta_arg_of_pericenter": 329.1657,
        "meta_mean_anomaly": 30.8537,
        "meta_ephemeris_type": 0,
        "meta_classification_type": "U",
        "meta_norad_cat_id": 43623,
        "meta_element_set_no": 999,
        "meta_rev_at_epoch": 4931,
        "meta_bstar": 0,
        "meta_mean_motion_dot": -4.7e-07,
        "meta_mean_motion_ddot": 0,
        "tle_line1": "1 43623U 18072B   25354.05827437 -.00000047  00000+0  00000+0 0  9991",
        "tle_line2": "2 43623  56.4671  68.5717 0003449 329.1657  30.8537  1.86231107 49318"
      },
      "geometry": {
        "type": "Point",
        "coordinates": [
          -112.71606481722397,
          1.9313350865198156
        ]
      }
    },
    {
      "type": "Feature",
      "properties": {
        "norad_id": 43647,
        "name": "BEIDOU-3 M16 (C35)",
        "group": "beidou",
        "lat": 50.55449779019382,
        "lon": 7.200718534619124,
        "alt_km": 21509.423609271027,
        "timestamp": "2025-12-20T20:38:44.708244+00:00",
        "meta_object_name": "BEIDOU-3 M16 (C35)",
        "meta_object_id": "2018-078A",
        "meta_epoch": "2025-12-18T14:31:23.928384",
        "meta_mean_motion": 1.86232416,
        "meta_eccentricity": 0.00073312,
        "meta_inclination": 54.2565,
        "meta_ra_of_asc_node": 306.3163,
        "meta_arg_of_pericenter": 19.8035,
        "meta_mean_anomaly": 340.2135,
        "meta_ephemeris_type": 0,
        "meta_classification_type": "U",
        "meta_norad_cat_id": 43647,
        "meta_element_set_no": 999,
        "meta_rev_at_epoch": 4879,
        "meta_bstar": 0,
        "meta_mean_motion_dot": -8.1e-07,
        "meta_mean_motion_ddot": 0,
        "tle_line1": "1 43647U 18078A   25352.60513806 -.00000081  00000+0  00000+0 0  9992",
        "tle_line2": "2 43647  54.2565 306.3163 0007331  19.8035 340.2135  1.86232416 48794"
      },
      "geometry": {
        "type": "Point",
        "coordinates": [
          7.200718534619124,
          50.55449779019382
        ]
      }
    },
    {
      "type": "Feature",
      "properties": {
        "norad_id": 43648,
        "name": "BEIDOU-3 M15 (C34)",
        "group": "beidou",
        "lat": -11.893612540824327,
        "lon": -62.50308724057111,
        "alt_km": 21520.597301766058,
        "timestamp": "2025-12-20T20:38:44.708255+00:00",
        "meta_object_name": "BEIDOU-3 M15 (C34)",
        "meta_object_id": "2018-078B",
        "meta_epoch": "2025-12-19T06:30:41.361984",
        "meta_mean_motion": 1.86232317,
        "meta_eccentricity": 0.0003969,
        "meta_inclination": 54.2518,
        "meta_ra_of_asc_node": 306.2933,
        "meta_arg_of_pericenter": 20.1104,
        "meta_mean_anomaly": 339.8954,
        "meta_ephemeris_type": 0,
        "meta_classification_type": "U",
        "meta_norad_cat_id": 43648,
        "meta_element_set_no": 999,
        "meta_rev_at_epoch": 4882,
        "meta_bstar": 0,
        "meta_mean_motion_dot": -7.6e-07,
        "meta_mean_motion_ddot": 0,
        "tle_line1": "1 43648U 18078B   25353.27131206 -.00000076  00000+0  00000+0 0  9991",
        "tle_line2": "2 43648  54.2518 306.2933 0003969  20.1104 339.8954  1.86232317 48829"
      },
      "geometry": {
        "type": "Point",
        "coordinates": [
          -62.50308724057111,
          -11.893612540824327
        ]
      }
    },
    {
      "type": "Feature",
      "properties": {
        "norad_id": 43683,
        "name": "BEIDOU-3 G1 (C59)",
        "group": "beidou",
        "lat": 2.5578985093113675,
        "lon": 179.38109380416168,
        "alt_km": 35780.93138672657,
        "timestamp": "2025-12-20T20:38:44.708266+00:00",
        "meta_object_name": "BEIDOU-3 G1 (C59)",
        "meta_object_id": "2018-085A",
        "meta_epoch": "2025-12-20T13:53:49.776576",
        "meta_mean_motion": 1.0026848,
        "meta_eccentricity": 0.00015879,
        "meta_inclination": 2.6264,
        "meta_ra_of_asc_node": 102.7378,
        "meta_arg_of_pericenter": 46.8871,
        "meta_mean_anomaly": 288.262,
        "meta_ephemeris_type": 0,
        "meta_classification_type": "U",
        "meta_norad_cat_id": 43683,
        "meta_element_set_no": 999,
        "meta_rev_at_epoch": 2626,
        "meta_bstar": 0,
        "meta_mean_motion_dot": -2.56e-06,
        "meta_mean_motion_ddot": 0,
        "tle_line1": "1 43683U 18085A   25354.57904834 -.00000256  00000+0  00000+0 0  9997",
        "tle_line2": "2 43683   2.6264 102.7378 0001587  46.8871 288.2620  1.00268480 26262"
      },
      "geometry": {
        "type": "Point",
        "coordinates": [
          179.38109380416168,
          2.5578985093113675
        ]
      }
    }
  ]
}